STARLINK-2588
1 18398C 21038AX  21326.15328813  .00005540  00000-0  37129-3 0  3264
2 18398  53.0529 183.0472 0001790  78.5806 147.9461 15.06384189    12
